OBJECT_NAME,OBJECT_ID,EPOCH,MEAN_MOTION,ECCENTRICITY,INCLINATION,RA_OF_ASC_NODE,ARG_OF_PERICENTER,MEAN_ANOMALY,EPHEMERIS_TYPE,CLASSIFICATION_TYPE,NORAD_CAT_ID,ELEMENT_SET_NO,REV_AT_EPOCH,BSTAR,MEAN_MOTION_DOT,MEAN_MOTION_DDOT
STARLINK-36573,2026-014H,2026-06-20T06:25:39.273888,15.33451840,.00009313,97.2876,57.9383,106.0440,254.0905,0,U,67539,999,2450,.50727354E-3,.1634E-3,0
STARLINK-36585,2026-014J,2026-06-20T06:17:49.705440,15.33468904,.0000882,97.2866,57.9425,91.1474,268.9870,0,U,67540,999,2450,.50988472E-3,.16434E-3,0
STARLINK-36579,2026-014K,2026-06-20T07:04:48.485568,15.33458897,.00016049,97.2861,58.0532,108.8314,251.3103,0,U,67541,999,2451,.53308377E-3,.17182E-3,0
STARLINK-35934,2026-014L,2026-06-20T05:38:40.149888,15.33449960,.00010201,97.2854,57.9850,75.3229,284.8127,0,U,67542,999,2449,.49709831E-3,.1601E-3,0
STARLINK-36581,2026-014M,2026-06-20T06:21:44.360064,15.33450169,.00009425,97.2864,57.9426,93.3018,266.8332,0,U,67543,999,2450,.43722966E-3,.14069E-3,0
STARLINK-36565,2026-014N,2026-06-20T06:33:28.587456,15.33477597,.00008424,97.2886,57.9313,131.3355,228.7961,0,U,67544,999,2450,.12349263E-2,.40046E-3,0
STARLINK-36583,2026-014P,2026-06-20T04:20:21.888096,15.33450519,.00013736,97.2866,57.9049,129.3294,230.8071,0,U,67545,999,2449,.49718242E-3,.16013E-3,0
STARLINK-36580,2026-014Q,2026-06-20T05:11:16.170432,15.33445126,.00022533,97.2858,57.8575,109.0027,251.1460,0,U,67546,999,2449,.60627102E-3,.19549E-3,0
STARLINK-36584,2026-014R,2026-06-20T04:12:32.104512,15.33455358,.00011245,97.2864,57.9132,84.9699,275.1672,0,U,67547,999,2449,.44491033E-3,.1432E-3,0
STARLINK-36586,2026-014S,2026-06-20T04:08:37.236480,15.33459388,.0001245,97.2867,57.9191,29.0203,331.1109,0,U,67548,999,2449,.57525846E-3,.1855E-3,0
STARLINK-36564,2026-014T,2026-06-20T05:15:10.641024,15.33451875,.00012252,97.2878,57.8527,110.7143,249.4231,0,U,67549,999,2443,.35717075E-3,.11476E-3,0
STARLINK-36563,2026-014U,2026-06-20T05:34:45.185088,15.33453149,.00011536,97.2879,57.9879,135.1702,224.9634,0,U,67550,999,2450,.40506052E-3,.13028E-3,0
STARLINK-36566,2026-014V,2026-06-20T05:23:00.827232,15.33448284,.00018052,97.2849,57.8439,86.4261,273.7188,0,U,67551,999,2448,.4582746E-3,.14751E-3,0
STARLINK-36567,2026-014W,2026-06-20T04:16:26.962176,15.33452072,.00010337,97.2856,57.9073,96.3295,263.8066,0,U,67552,999,2448,.3451982E-3,.11088E-3,0
STARLINK-36569,2026-014X,2026-06-20T04:28:11.862624,15.33448346,.00014938,97.2852,57.8991,101.5406,258.6004,0,U,67553,999,2448,.44978989E-3,.14475E-3,0
STARLINK-36395,2026-014Y,2026-06-20T06:00:02.000160,15.33457217,.00020534,97.2850,60.8304,104.5246,174.7641,0,U,67554,999,584,-.57583313E-3,-.18628E-3,0
STARLINK-36559,2026-014Z,2026-06-20T06:13:54.747552,15.33451131,.00011781,97.2859,57.9491,88.8777,271.2601,0,U,67555,999,2449,.49025563E-3,.15788E-3,0
MR-2,2026-015A,2026-06-20T07:26:30.244128,13.52694656,.00052396,89.0005,268.2214,80.5177,279.6567,0,U,67556,999,2013,.59175381E-4,.51E-6,0
MR-1,2026-015B,2026-06-20T05:43:58.362816,13.52669071,.00052881,89.0005,268.2289,79.6351,280.5397,0,U,67557,999,2012,.60607606E-4,.52E-6,0
STARLINK-36426,2026-014AA,2026-06-20T05:26:55.649472,15.33450751,.00012472,97.2861,57.9968,80.9862,279.1522,0,U,67560,999,2449,.37346239E-3,.12003E-3,0
STARLINK-36621,2026-016A,2026-06-19T16:42:57.129120,15.33439021,.00002309,97.2850,230.6119,140.6069,219.5191,0,U,67561,999,2249,.27266302E-3,.8736E-4,0
STARLINK-36398,2026-016B,2026-06-19T16:54:40.886496,15.33433078,.00003129,97.2839,230.7533,109.0628,251.0649,0,U,67562,999,2250,-.48293423E-4,-.1633E-4,0
STARLINK-36403,2026-016C,2026-06-20T04:19:52.613184,15.33461878,.00011065,97.2843,231.1775,63.7929,296.3427,0,U,67563,999,2257,.57611218E-3,.1858E-3,0
STARLINK-36593,2026-016D,2026-06-19T17:29:56.031072,15.33453590,.0000515,97.2827,230.7190,130.0971,230.0317,0,U,67564,999,2250,.45523496E-3,.14654E-3,0
STARLINK-35725,2026-016E,2026-06-19T21:05:16.640448,15.33460954,.00008609,97.2840,230.8252,96.0784,264.0557,0,U,67565,999,2252,.45677979E-3,.14708E-3,0
STARLINK-36394,2026-016F,2026-06-19T16:27:17.334720,15.33438097,.00009427,97.2856,230.6288,210.6792,149.4395,0,U,67566,999,2249,.22418901E-3,.7168E-4,0
STARLINK-36352,2026-016G,2026-06-19T17:14:16.271232,15.33456216,.00002204,97.2830,230.7355,177.4127,182.7117,0,U,67567,999,2250,.48039214E-3,.15471E-3,0
STARLINK-36435,2026-016H,2026-06-19T16:58:36.908832,15.33447800,.00013957,97.2838,230.7509,94.8897,265.2506,0,U,67568,999,2250,.44834592E-3,.14428E-3,0
STARLINK-36575,2026-016J,2026-06-19T16:45:04.447296,15.33456821,.0000795,97.2814,231.6742,184.0935,176.0302,0,U,67569,999,2256,.41612824E-3,.13388E-3,0
STARLINK-36562,2026-016K,2026-06-19T17:10:21.452448,15.33450019,.00010034,97.2837,230.7408,165.8659,194.2612,0,U,67570,999,2250,.35487738E-3,.11401E-3,0
