STARLINK-36573          
1 67539U 26014H   26171.26781567  .00016340  00000+0  50727-3 0  9999
2 67539  97.2876  57.9383 0000931 106.0440 254.0905 15.33451840 24504
STARLINK-36585          
1 67540U 26014J   26171.26238085  .00016434  00000+0  50988-3 0  9996
2 67540  97.2866  57.9425 0000882  91.1474 268.9870 15.33468904 24502
STARLINK-36579          
1 67541U 26014K   26171.29500562  .00017182  00000+0  53308-3 0  9992
2 67541  97.2861  58.0532 0001604 108.8314 251.3103 15.33458897 24517
STARLINK-35934          
1 67542U 26014L   26171.23518692  .00016010  00000+0  49710-3 0  9991
2 67542  97.2854  57.9850 0001020  75.3229 284.8127 15.33449960 24491
STARLINK-36581          
1 67543U 26014M   26171.26509676  .00014069  00000+0  43723-3 0  9997
2 67543  97.2864  57.9426 0000942  93.3018 266.8332 15.33450169 24503
STARLINK-36565          
1 67544U 26014N   26171.27324754  .00040046  00000+0  12349-2 0  9994
2 67544  97.2886  57.9313 0000842 131.3355 228.7961 15.33477597 24508
STARLINK-36583          
1 67545U 26014P   26171.18080889  .00016013  00000+0  49718-3 0  9991
2 67545  97.2866  57.9049 0001373 129.3294 230.8071 15.33450519 24491
STARLINK-36580          
1 67546U 26014Q   26171.21615938  .00019549  00000+0  60627-3 0  9994
2 67546  97.2858  57.8575 0002253 109.0027 251.1460 15.33445126 24499
STARLINK-36584          
1 67547U 26014R   26171.17537158  .00014320  00000+0  44491-3 0  9990
2 67547  97.2864  57.9132 0001124  84.9699 275.1672 15.33455358 24498
STARLINK-36586          
1 67548U 26014S   26171.17265320  .00018550  00000+0  57526-3 0  9992
2 67548  97.2867  57.9191 0001245  29.0203 331.1109 15.33459388 24497
STARLINK-36564          
1 67549U 26014T   26171.21887316  .00011476  00000+0  35717-3 0  9991
2 67549  97.2878  57.8527 0001225 110.7143 249.4231 15.33451875 24435
STARLINK-36563          
1 67550U 26014U   26171.23246742  .00013028  00000+0  40506-3 0  9994
2 67550  97.2879  57.9879 0001153 135.1702 224.9634 15.33453149 24500
STARLINK-36566          
1 67551U 26014V   26171.22431513  .00014751  00000+0  45827-3 0  9991
2 67551  97.2849  57.8439 0001805  86.4261 273.7188 15.33448284 24488
STARLINK-36567          
1 67552U 26014W   26171.17808984  .00011088  00000+0  34520-3 0  9994
2 67552  97.2856  57.9073 0001033  96.3295 263.8066 15.33452072 24487
STARLINK-36569          
1 67553U 26014X   26171.18624841  .00014475  00000+0  44979-3 0  9996
2 67553  97.2852  57.8991 0001493 101.5406 258.6004 15.33448346 24488
STARLINK-36395          
1 67554U 26014Y   26171.25002315 -.00018628  00000+0 -57583-3 0  9992
2 67554  97.2850  60.8304 0002053 104.5246 174.7641 15.33457217  5848
STARLINK-36559          
1 67555U 26014Z   26171.25966143  .00015788  00000+0  49026-3 0  9996
2 67555  97.2859  57.9491 0001178  88.8777 271.2601 15.33451131 24492
MR-2                    
1 67556U 26015A   26171.31007227  .00000051  00000+0  59175-4 0  9998
2 67556  89.0005 268.2214 0005239  80.5177 279.6567 13.52694656 20130
MR-1                    
1 67557U 26015B   26171.23886994  .00000052  00000+0  60608-4 0  9990
2 67557  89.0005 268.2289 0005288  79.6351 280.5397 13.52669071 20124
STARLINK-36426          
1 67560U 26014AA  26171.22703298  .00012003  00000+0  37346-3 0  9998
2 67560  97.2861  57.9968 0001247  80.9862 279.1522 15.33450751 24491
STARLINK-36621          
1 67561U 26016A   26170.69649455  .00008736  00000+0  27266-3 0  9993
2 67561  97.2850 230.6119 0000230 140.6069 219.5191 15.33439021 22497
STARLINK-36398          
1 67562U 26016B   26170.70463989 -.00001633  00000+0 -48293-4 0  9997
2 67562  97.2839 230.7533 0000312 109.0628 251.0649 15.33433078 22504
STARLINK-36403          
1 67563U 26016C   26171.18047006  .00018580  00000+0  57611-3 0  9999
2 67563  97.2843 231.1775 0001106  63.7929 296.3427 15.33461878 22577
STARLINK-36593          
1 67564U 26016D   26170.72912073  .00014654  00000+0  45523-3 0  9991
2 67564  97.2827 230.7190 0000515 130.0971 230.0317 15.33453590 22502
STARLINK-35725          
1 67565U 26016E   26170.87866482  .00014708  00000+0  45678-3 0  9991
2 67565  97.2840 230.8252 0000860  96.0784 264.0557 15.33460954 22521
STARLINK-36394          
1 67566U 26016F   26170.68561730  .00007168  00000+0  22419-3 0  9999
2 67566  97.2856 230.6288 0000942 210.6792 149.4395 15.33438097 22495
STARLINK-36352          
1 67567U 26016G   26170.71824388  .00015471  00000+0  48039-3 0  9997
2 67567  97.2830 230.7355 0000220 177.4127 182.7117 15.33456216 22502
STARLINK-36435          
1 67568U 26016H   26170.70737163  .00014428  00000+0  44835-3 0  9992
2 67568  97.2838 230.7509 0001395  94.8897 265.2506 15.33447800 22500
STARLINK-36575          
1 67569U 26016J   26170.69796814  .00013388  00000+0  41613-3 0  9994
2 67569  97.2814 231.6742 0000795 184.0935 176.0302 15.33456821 22564
STARLINK-36562          
1 67570U 26016K   26170.71552607  .00011401  00000+0  35488-3 0  9996
2 67570  97.2837 230.7408 0001003 165.8659 194.2612 15.33450019 22506
